[{"OBJECT_NAME":"CHUANGXIN 16A (CX-16A)","OBJECT_ID":"2022-102A","EPOCH":"2026-03-09T19:59:28.991616","MEAN_MOTION":15.05552649,"ECCENTRICITY":0.0005063,"INCLINATION":28.9941,"RA_OF_ASC_NODE":256.1289,"ARG_OF_PERICENTER":43.7318,"MEAN_ANOMALY":316.3682,"EPHEMERIS_TYPE":0,"CLASSIFICATION_TYPE":"U","NORAD_CAT_ID":53586,"ELEMENT_SET_NO":999,"REV_AT_EPOCH":19453,"BSTAR":0.00020134,"MEAN_MOTION_DOT":3.128e-5,"MEAN_MOTION_DDOT":0},{"OBJECT_NAME":"COSMOS 252 DEB","OBJECT_ID":"1968-097H","EPOCH":"2026-03-09T15:55:45.465888","MEAN_MOTION":13.08433626,"ECCENTRICITY":0.09089174,"INCLINATION":62.3171,"RA_OF_ASC_NODE":165.0158,"ARG_OF_PERICENTER":153.052,"MEAN_ANOMALY":212.0845,"EPHEMERIS_TYPE":0,"CLASSIFICATION_TYPE":"U","NORAD_CAT_ID":3555,"ELEMENT_SET_NO":999,"REV_AT_EPOCH":72378,"BSTAR":0.0001690308,"MEAN_MOTION_DOT":3.69e-6,"MEAN_MOTION_DDOT":0}]
